{
"type": "FeatureCollection",
                                                                                
"features": [
{ "type": "Feature", "properties": { "osm_id": "825150226", "osm_timest": "2013\/07\/31", "osm_user": "yakingman", "name": "Sawbill Outfitters and Sawbill Lake Campground", "amenity": null, "tourism": "camp_site" }, "geometry": { "type": "Point", "coordinates": [ -90.884716199999986, 47.8633259 ] } },
{ "type": "Feature", "properties": { "osm_id": "1264530553", "osm_timest": "2011\/04\/29", "osm_user": "moosejaw", "name": "Gunflint Pines Resort & Campground", "amenity": null, "tourism": "camp_site" }, "geometry": { "type": "Point", "coordinates": [ -90.7421649, 48.0874329 ] } },
{ "type": "Feature", "properties": { "osm_id": "1701352912", "osm_timest": "2012\/04\/04", "osm_user": "AndrewBuck", "name": null, "amenity": null, "tourism": "camp_site" }, "geometry": { "type": "Point", "coordinates": [ -90.8017618, 47.9637383 ] } },
{ "type": "Feature", "properties": { "osm_id": "1720932265", "osm_timest": "2012\/04\/17", "osm_user": "neuhausr", "name": "Camp DuNord", "amenity": null, "tourism": "camp_site" }, "geometry": { "type": "Point", "coordinates": [ -91.966403699999987, 47.9835598 ] } },
{ "type": "Feature", "properties": { "osm_id": "1742363739", "osm_timest": "2012\/05\/06", "osm_user": "bal_agates", "name": "Section 29 Lake Campground", "amenity": null, "tourism": "camp_site" }, "geometry": { "type": "Point", "coordinates": [ -91.2416903, 47.7409365 ] } },
{ "type": "Feature", "properties": { "osm_id": "1742367800", "osm_timest": "2012\/05\/06", "osm_user": "bal_agates", "name": "Kawishiwi Lake Campground", "amenity": null, "tourism": "camp_site" }, "geometry": { "type": "Point", "coordinates": [ -91.102971, 47.8387425 ] } },
{ "type": "Feature", "properties": { "osm_id": "1742375031", "osm_timest": "2012\/05\/06", "osm_user": "bal_agates", "name": "Crescent Lake Campground", "amenity": null, "tourism": "camp_site" }, "geometry": { "type": "Point", "coordinates": [ -90.7717674, 47.8345152 ] } },
{ "type": "Feature", "properties": { "osm_id": "1742381733", "osm_timest": "2012\/05\/06", "osm_user": "bal_agates", "name": "Baker Lake Campground", "amenity": null, "tourism": "camp_site" }, "geometry": { "type": "Point", "coordinates": [ -90.8170451, 47.8444591 ] } },
{ "type": "Feature", "properties": { "osm_id": "1742433817", "osm_timest": "2012\/05\/06", "osm_user": "bal_agates", "name": "East Bearskin Lake Campground", "amenity": null, "tourism": "camp_site" }, "geometry": { "type": "Point", "coordinates": [ -90.3962764, 48.038068 ] } },
{ "type": "Feature", "properties": { "osm_id": "1742433821", "osm_timest": "2012\/05\/06", "osm_user": "bal_agates", "name": "Flour Lake Campground", "amenity": null, "tourism": "camp_site" }, "geometry": { "type": "Point", "coordinates": [ -90.40720970000001, 48.0531944 ] } },
{ "type": "Feature", "properties": { "osm_id": "2423447706", "osm_timest": "2013\/08\/18", "osm_user": "yakingman", "name": "Campsite", "amenity": null, "tourism": "camp_site" }, "geometry": { "type": "Point", "coordinates": [ -90.9468164, 47.8666854 ] } },
{ "type": "Feature", "properties": { "osm_id": "2423447718", "osm_timest": "2013\/08\/18", "osm_user": "yakingman", "name": "Campsite", "amenity": null, "tourism": "camp_site" }, "geometry": { "type": "Point", "coordinates": [ -90.9486, 47.8583536 ] } },
{ "type": "Feature", "properties": { "osm_id": "2423447721", "osm_timest": "2013\/08\/18", "osm_user": "yakingman", "name": "Campsite", "amenity": null, "tourism": "camp_site" }, "geometry": { "type": "Point", "coordinates": [ -90.9538572, 47.8561867 ] } },
{ "type": "Feature", "properties": { "osm_id": "2423447726", "osm_timest": "2013\/08\/18", "osm_user": "yakingman", "name": "Campsite", "amenity": null, "tourism": "camp_site" }, "geometry": { "type": "Point", "coordinates": [ -90.9543507, 47.8586703 ] } },
{ "type": "Feature", "properties": { "osm_id": "2423447729", "osm_timest": "2013\/08\/18", "osm_user": "yakingman", "name": "Campsite", "amenity": null, "tourism": "camp_site" }, "geometry": { "type": "Point", "coordinates": [ -90.9439652, 47.8677866 ] } },
{ "type": "Feature", "properties": { "osm_id": "2423447811", "osm_timest": "2013\/08\/18", "osm_user": "yakingman", "name": "Campsite", "amenity": null, "tourism": "camp_site" }, "geometry": { "type": "Point", "coordinates": [ -90.9661044, 47.8686646 ] } },
{ "type": "Feature", "properties": { "osm_id": "2423447813", "osm_timest": "2013\/08\/18", "osm_user": "yakingman", "name": "Campsite", "amenity": null, "tourism": "camp_site" }, "geometry": { "type": "Point", "coordinates": [ -90.976537900000011, 47.8723963 ] } },
{ "type": "Feature", "properties": { "osm_id": "2423447817", "osm_timest": "2013\/08\/18", "osm_user": "yakingman", "name": "Campsite", "amenity": null, "tourism": "camp_site" }, "geometry": { "type": "Point", "coordinates": [ -90.9682124, 47.8666026 ] } },
{ "type": "Feature", "properties": { "osm_id": "2423447818", "osm_timest": "2013\/08\/18", "osm_user": "yakingman", "name": "Campsite", "amenity": null, "tourism": "camp_site" }, "geometry": { "type": "Point", "coordinates": [ -90.9742532, 47.8694675 ] } },
{ "type": "Feature", "properties": { "osm_id": "2423447824", "osm_timest": "2013\/08\/18", "osm_user": "yakingman", "name": "Campsite", "amenity": null, "tourism": "camp_site" }, "geometry": { "type": "Point", "coordinates": [ -90.9346955, 47.8567374 ] } },
{ "type": "Feature", "properties": { "osm_id": "2423447843", "osm_timest": "2015\/02\/19", "osm_user": "bitner", "name": "Campsite", "amenity": "toilets", "tourism": "camp_site" }, "geometry": { "type": "Point", "coordinates": [ -90.9193211, 47.853487 ] } },
{ "type": "Feature", "properties": { "osm_id": "2423447844", "osm_timest": "2013\/08\/18", "osm_user": "yakingman", "name": "Campsite", "amenity": null, "tourism": "camp_site" }, "geometry": { "type": "Point", "coordinates": [ -90.916199, 47.8500672 ] } },
{ "type": "Feature", "properties": { "osm_id": "2423447845", "osm_timest": "2013\/08\/18", "osm_user": "yakingman", "name": "Campsite", "amenity": null, "tourism": "camp_site" }, "geometry": { "type": "Point", "coordinates": [ -90.9109633, 47.8532494 ] } },
{ "type": "Feature", "properties": { "osm_id": "2423447846", "osm_timest": "2013\/08\/18", "osm_user": "yakingman", "name": "Campsite", "amenity": null, "tourism": "camp_site" }, "geometry": { "type": "Point", "coordinates": [ -90.9092145, 47.8558916 ] } },
{ "type": "Feature", "properties": { "osm_id": "3342204026", "osm_timest": "2015\/02\/10", "osm_user": "bitner", "name": null, "amenity": null, "tourism": "camp_site" }, "geometry": { "type": "Point", "coordinates": [ -90.9141874, 48.0645236 ] } },
{ "type": "Feature", "properties": { "osm_id": "3342309165", "osm_timest": "2015\/02\/10", "osm_user": "bitner", "name": null, "amenity": null, "tourism": "camp_site" }, "geometry": { "type": "Point", "coordinates": [ -90.9117349, 48.0656544 ] } },
{ "type": "Feature", "properties": { "osm_id": "3344784551", "osm_timest": "2015\/02\/17", "osm_user": "bitner", "name": null, "amenity": null, "tourism": "camp_site" }, "geometry": { "type": "Point", "coordinates": [ -90.848037299999987, 48.0604139 ] } },
{ "type": "Feature", "properties": { "osm_id": "3344784576", "osm_timest": "2015\/02\/17", "osm_user": "bitner", "name": null, "amenity": null, "tourism": "camp_site" }, "geometry": { "type": "Point", "coordinates": [ -90.847350099999986, 48.0570738 ] } },
{ "type": "Feature", "properties": { "osm_id": "3344784577", "osm_timest": "2015\/02\/11", "osm_user": "nronnei", "name": null, "amenity": null, "tourism": "camp_site" }, "geometry": { "type": "Point", "coordinates": [ -90.8486403, 48.0556627 ] } },
{ "type": "Feature", "properties": { "osm_id": "3344897798", "osm_timest": "2015\/02\/11", "osm_user": "nronnei", "name": null, "amenity": null, "tourism": "camp_site" }, "geometry": { "type": "Point", "coordinates": [ -90.8876045, 48.0524323 ] } },
{ "type": "Feature", "properties": { "osm_id": "3344897799", "osm_timest": "2015\/02\/11", "osm_user": "nronnei", "name": null, "amenity": null, "tourism": "camp_site" }, "geometry": { "type": "Point", "coordinates": [ -90.8953061, 48.0495058 ] } },
{ "type": "Feature", "properties": { "osm_id": "3344897803", "osm_timest": "2015\/02\/12", "osm_user": "bitner", "name": null, "amenity": null, "tourism": "camp_site" }, "geometry": { "type": "Point", "coordinates": [ -90.8762586, 48.0460453 ] } },
{ "type": "Feature", "properties": { "osm_id": "3344897830", "osm_timest": "2015\/02\/12", "osm_user": "bitner", "name": null, "amenity": null, "tourism": "camp_site" }, "geometry": { "type": "Point", "coordinates": [ -90.8755471, 48.0423003 ] } },
{ "type": "Feature", "properties": { "osm_id": "3344897857", "osm_timest": "2015\/02\/12", "osm_user": "bitner", "name": null, "amenity": null, "tourism": "camp_site" }, "geometry": { "type": "Point", "coordinates": [ -90.869313, 48.0420361 ] } },
{ "type": "Feature", "properties": { "osm_id": "3344965890", "osm_timest": "2015\/02\/12", "osm_user": "bitner", "name": null, "amenity": null, "tourism": "camp_site" }, "geometry": { "type": "Point", "coordinates": [ -90.8631748, 48.0364408 ] } },
{ "type": "Feature", "properties": { "osm_id": "3344974721", "osm_timest": "2015\/02\/12", "osm_user": "bitner", "name": null, "amenity": null, "tourism": "camp_site" }, "geometry": { "type": "Point", "coordinates": [ -90.880879400000012, 48.0345264 ] } },
{ "type": "Feature", "properties": { "osm_id": "3344974722", "osm_timest": "2015\/02\/12", "osm_user": "nronnei", "name": null, "amenity": null, "tourism": "camp_site" }, "geometry": { "type": "Point", "coordinates": [ -90.8831104, 48.0375811 ] } },
{ "type": "Feature", "properties": { "osm_id": "3344974723", "osm_timest": "2015\/02\/12", "osm_user": "bitner", "name": null, "amenity": null, "tourism": "camp_site" }, "geometry": { "type": "Point", "coordinates": [ -90.896078100000011, 48.0416115 ] } },
{ "type": "Feature", "properties": { "osm_id": "3344974724", "osm_timest": "2015\/02\/12", "osm_user": "bitner", "name": null, "amenity": null, "tourism": "camp_site" }, "geometry": { "type": "Point", "coordinates": [ -90.88449150000001, 48.042172 ] } },
{ "type": "Feature", "properties": { "osm_id": "3345109150", "osm_timest": "2015\/02\/12", "osm_user": "nronnei", "name": null, "amenity": null, "tourism": "camp_site" }, "geometry": { "type": "Point", "coordinates": [ -90.8136394, 48.0498465 ] } },
{ "type": "Feature", "properties": { "osm_id": "3345109160", "osm_timest": "2015\/02\/12", "osm_user": "nronnei", "name": null, "amenity": null, "tourism": "camp_site" }, "geometry": { "type": "Point", "coordinates": [ -90.8308133, 48.0490082 ] } },
{ "type": "Feature", "properties": { "osm_id": "3345109166", "osm_timest": "2015\/02\/12", "osm_user": "nronnei", "name": null, "amenity": null, "tourism": "camp_site" }, "geometry": { "type": "Point", "coordinates": [ -90.8269803, 48.0505507 ] } },
{ "type": "Feature", "properties": { "osm_id": "3345109182", "osm_timest": "2015\/02\/12", "osm_user": "nronnei", "name": null, "amenity": null, "tourism": "camp_site" }, "geometry": { "type": "Point", "coordinates": [ -90.827651, 48.055028 ] } },
{ "type": "Feature", "properties": { "osm_id": "3345156232", "osm_timest": "2015\/02\/12", "osm_user": "nronnei", "name": null, "amenity": null, "tourism": "camp_site" }, "geometry": { "type": "Point", "coordinates": [ -90.872426600000011, 48.0728685 ] } },
{ "type": "Feature", "properties": { "osm_id": "3345156240", "osm_timest": "2015\/02\/12", "osm_user": "nronnei", "name": null, "amenity": null, "tourism": "camp_site" }, "geometry": { "type": "Point", "coordinates": [ -90.8622938, 48.0752331 ] } },
{ "type": "Feature", "properties": { "osm_id": "3345156245", "osm_timest": "2015\/02\/12", "osm_user": "nronnei", "name": null, "amenity": null, "tourism": "camp_site" }, "geometry": { "type": "Point", "coordinates": [ -90.8688667, 48.0744313 ] } },
{ "type": "Feature", "properties": { "osm_id": "3356565067", "osm_timest": "2015\/02\/17", "osm_user": "nronnei", "name": null, "amenity": null, "tourism": "camp_site" }, "geometry": { "type": "Point", "coordinates": [ -90.9229482, 48.0610946 ] } },
{ "type": "Feature", "properties": { "osm_id": "3356614754", "osm_timest": "2015\/02\/17", "osm_user": "nronnei", "name": null, "amenity": null, "tourism": "camp_site" }, "geometry": { "type": "Point", "coordinates": [ -90.9306656, 48.0598865 ] } },
{ "type": "Feature", "properties": { "osm_id": "3356614759", "osm_timest": "2015\/02\/17", "osm_user": "nronnei", "name": null, "amenity": null, "tourism": "camp_site" }, "geometry": { "type": "Point", "coordinates": [ -90.9395508, 48.0599753 ] } },
{ "type": "Feature", "properties": { "osm_id": "3356614773", "osm_timest": "2015\/02\/17", "osm_user": "nronnei", "name": null, "amenity": null, "tourism": "camp_site" }, "geometry": { "type": "Point", "coordinates": [ -90.94566780000001, 48.0542291 ] } },
{ "type": "Feature", "properties": { "osm_id": "3356618698", "osm_timest": "2015\/02\/17", "osm_user": "nronnei", "name": null, "amenity": null, "tourism": "camp_site" }, "geometry": { "type": "Point", "coordinates": [ -90.941793299999986, 48.0506892 ] } },
{ "type": "Feature", "properties": { "osm_id": "3356618705", "osm_timest": "2015\/02\/17", "osm_user": "nronnei", "name": null, "amenity": null, "tourism": "camp_site" }, "geometry": { "type": "Point", "coordinates": [ -90.9227431, 48.0526767 ] } },
{ "type": "Feature", "properties": { "osm_id": "3356618717", "osm_timest": "2015\/02\/17", "osm_user": "nronnei", "name": null, "amenity": null, "tourism": "camp_site" }, "geometry": { "type": "Point", "coordinates": [ -90.9374714, 48.0573616 ] } },
{ "type": "Feature", "properties": { "osm_id": "3359784446", "osm_timest": "2015\/02\/19", "osm_user": "bitner", "name": null, "amenity": "toilets", "tourism": "camp_site" }, "geometry": { "type": "Point", "coordinates": [ -90.8876975, 47.8745915 ] } },
{ "type": "Feature", "properties": { "osm_id": "3359784447", "osm_timest": "2015\/02\/19", "osm_user": "bitner", "name": null, "amenity": "toilets", "tourism": "camp_site" }, "geometry": { "type": "Point", "coordinates": [ -90.8866101, 47.8734974 ] } },
{ "type": "Feature", "properties": { "osm_id": "3359784467", "osm_timest": "2015\/02\/19", "osm_user": "bitner", "name": null, "amenity": "toilets", "tourism": "camp_site" }, "geometry": { "type": "Point", "coordinates": [ -90.8746052, 47.8842464 ] } },
{ "type": "Feature", "properties": { "osm_id": "3359784468", "osm_timest": "2015\/02\/19", "osm_user": "bitner", "name": null, "amenity": "toilets", "tourism": "camp_site" }, "geometry": { "type": "Point", "coordinates": [ -90.8705403, 47.893344 ] } },
{ "type": "Feature", "properties": { "osm_id": "3359784469", "osm_timest": "2015\/02\/19", "osm_user": "bitner", "name": null, "amenity": "toilets", "tourism": "camp_site" }, "geometry": { "type": "Point", "coordinates": [ -90.8728101, 47.9041873 ] } },
{ "type": "Feature", "properties": { "osm_id": "3359784470", "osm_timest": "2015\/02\/19", "osm_user": "bitner", "name": null, "amenity": "toilets", "tourism": "camp_site" }, "geometry": { "type": "Point", "coordinates": [ -90.863912199999987, 47.9050841 ] } },
{ "type": "Feature", "properties": { "osm_id": "3359784471", "osm_timest": "2015\/02\/19", "osm_user": "bitner", "name": null, "amenity": "toilets", "tourism": "camp_site" }, "geometry": { "type": "Point", "coordinates": [ -90.85844920000001, 47.9082081 ] } },
{ "type": "Feature", "properties": { "osm_id": "3359784472", "osm_timest": "2015\/02\/19", "osm_user": "bitner", "name": null, "amenity": "toilets", "tourism": "camp_site" }, "geometry": { "type": "Point", "coordinates": [ -90.856982, 47.9154563 ] } },
{ "type": "Feature", "properties": { "osm_id": "3359784473", "osm_timest": "2015\/02\/19", "osm_user": "bitner", "name": null, "amenity": "toilets", "tourism": "camp_site" }, "geometry": { "type": "Point", "coordinates": [ -90.8688919, 47.9101519 ] } },
{ "type": "Feature", "properties": { "osm_id": "3359784474", "osm_timest": "2015\/02\/19", "osm_user": "bitner", "name": null, "amenity": "toilets", "tourism": "camp_site" }, "geometry": { "type": "Point", "coordinates": [ -90.8716191, 47.9156877 ] } },
{ "type": "Feature", "properties": { "osm_id": "3359784475", "osm_timest": "2015\/02\/19", "osm_user": "bitner", "name": null, "amenity": "toilets", "tourism": "camp_site" }, "geometry": { "type": "Point", "coordinates": [ -90.8755028, 47.9104874 ] } },
{ "type": "Feature", "properties": { "osm_id": "3359784476", "osm_timest": "2015\/02\/19", "osm_user": "bitner", "name": null, "amenity": "toilets", "tourism": "camp_site" }, "geometry": { "type": "Point", "coordinates": [ -90.8830544, 47.8928522 ] } },
{ "type": "Feature", "properties": { "osm_id": "3359784477", "osm_timest": "2015\/02\/19", "osm_user": "bitner", "name": null, "amenity": "toilets", "tourism": "camp_site" }, "geometry": { "type": "Point", "coordinates": [ -90.885609, 47.8974698 ] } },
{ "type": "Feature", "properties": { "osm_id": "3359784478", "osm_timest": "2015\/02\/19", "osm_user": "bitner", "name": null, "amenity": "toilets", "tourism": "camp_site" }, "geometry": { "type": "Point", "coordinates": [ -90.892910300000011, 47.8832278 ] } },
{ "type": "Feature", "properties": { "osm_id": "3359784479", "osm_timest": "2015\/02\/19", "osm_user": "bitner", "name": null, "amenity": "toilets", "tourism": "camp_site" }, "geometry": { "type": "Point", "coordinates": [ -90.8938769, 47.8860869 ] } },
{ "type": "Feature", "properties": { "osm_id": "3359784480", "osm_timest": "2015\/02\/19", "osm_user": "bitner", "name": null, "amenity": "toilets", "tourism": "camp_site" }, "geometry": { "type": "Point", "coordinates": [ -90.8977001, 47.889785 ] } },
{ "type": "Feature", "properties": { "osm_id": "3359784483", "osm_timest": "2015\/02\/19", "osm_user": "bitner", "name": null, "amenity": "toilets", "tourism": "camp_site" }, "geometry": { "type": "Point", "coordinates": [ -90.9041038, 47.8901786 ] } },
{ "type": "Feature", "properties": { "osm_id": "3359784484", "osm_timest": "2015\/02\/19", "osm_user": "bitner", "name": null, "amenity": "toilets", "tourism": "camp_site" }, "geometry": { "type": "Point", "coordinates": [ -90.9050273, 47.8836445 ] } },
{ "type": "Feature", "properties": { "osm_id": "3359784485", "osm_timest": "2015\/02\/19", "osm_user": "bitner", "name": null, "amenity": "toilets", "tourism": "camp_site" }, "geometry": { "type": "Point", "coordinates": [ -90.9050704, 47.8788693 ] } },
{ "type": "Feature", "properties": { "osm_id": "3359784486", "osm_timest": "2015\/02\/19", "osm_user": "bitner", "name": null, "amenity": "toilets", "tourism": "camp_site" }, "geometry": { "type": "Point", "coordinates": [ -90.906270099999986, 47.8778795 ] } },
{ "type": "Feature", "properties": { "osm_id": "3359784487", "osm_timest": "2015\/02\/19", "osm_user": "bitner", "name": null, "amenity": "toilets", "tourism": "camp_site" }, "geometry": { "type": "Point", "coordinates": [ -90.905312099999989, 47.87381 ] } },
{ "type": "Feature", "properties": { "osm_id": "3359784488", "osm_timest": "2015\/02\/19", "osm_user": "bitner", "name": null, "amenity": "toilets", "tourism": "camp_site" }, "geometry": { "type": "Point", "coordinates": [ -90.9056314, 47.8725422 ] } },
{ "type": "Feature", "properties": { "osm_id": "3359784489", "osm_timest": "2015\/02\/19", "osm_user": "bitner", "name": null, "amenity": "toilets", "tourism": "camp_site" }, "geometry": { "type": "Point", "coordinates": [ -90.9112584, 47.8682002 ] } },
{ "type": "Feature", "properties": { "osm_id": "3359784491", "osm_timest": "2015\/02\/19", "osm_user": "bitner", "name": null, "amenity": "toilets", "tourism": "camp_site" }, "geometry": { "type": "Point", "coordinates": [ -90.905434699999986, 47.8663862 ] } },
{ "type": "Feature", "properties": { "osm_id": "3359784492", "osm_timest": "2015\/02\/19", "osm_user": "bitner", "name": null, "amenity": "toilets", "tourism": "camp_site" }, "geometry": { "type": "Point", "coordinates": [ -90.9049861, 47.8634351 ] } },
{ "type": "Feature", "properties": { "osm_id": "3359794793", "osm_timest": "2015\/02\/19", "osm_user": "bitner", "name": null, "amenity": "toilets", "tourism": "camp_site" }, "geometry": { "type": "Point", "coordinates": [ -90.9022821, 47.8963576 ] } },
{ "type": "Feature", "properties": { "osm_id": "3359794794", "osm_timest": "2015\/02\/19", "osm_user": "bitner", "name": null, "amenity": "toilets", "tourism": "camp_site" }, "geometry": { "type": "Point", "coordinates": [ -90.9023777, 47.9126828 ] } },
{ "type": "Feature", "properties": { "osm_id": "3359794795", "osm_timest": "2015\/02\/19", "osm_user": "bitner", "name": null, "amenity": "toilets", "tourism": "camp_site" }, "geometry": { "type": "Point", "coordinates": [ -90.90468460000001, 47.9094735 ] } }
]
}
